{"type": "FeatureCollection", "features": [ {"type": "Feature", "properties": {"norad_id": 31228, "name": "FENGYUN 1C DEB", "group": "fengyun-1c-debris", "lat": -75.85371003351923, "lon": 35.78053222850794, "alt_km": 829.2702026905445, "timestamp": "2025-12-08T08:59:01.046917+00:00", "meta": {"OBJECT_NAME": "FENGYUN 1C DEB", "OBJECT_ID": "1999-025BLJ", "EPOCH": "2025-12-07T16:53:14.750880", "MEAN_MOTION": 14.36896908, "ECCENTRICITY": 0.00791727, "INCLINATION": 98.8687, "RA_OF_ASC_NODE": 253.3686, "ARG_OF_PERICENTER": 100.6332, "MEAN_ANOMALY": 290.6595, "EPHEMERIS_TYPE": 0, "CLASSIFICATION_TYPE": "U", "NORAD_CAT_ID": 31228, "ELEMENT_SET_NO": 999, "REV_AT_EPOCH": 97497, "BSTAR": 0.00087751816, "MEAN_MOTION_DOT": 2.645e-05, "MEAN_MOTION_DDOT": 0}, "tle": {"line1": "1 31228U 99025BLJ 25341.70364295  .00002645  00000+0  87752-3 0  9990", "line2": "2 31228  98.8687 253.3686 0079172 100.6332 290.6595 14.36896908974974"}}, "geometry": {"type": "Point", "coordinates": [35.78053222850794, -75.85371003351923]}}, {"type": "Feature", "properties": {"norad_id": 31229, "name": "FENGYUN 1C DEB", "group": "fengyun-1c-debris", "lat": -66.21116632940713, "lon": 78.40388456130192, "alt_km": 790.4103279479496, "timestamp": "2025-12-08T08:59:01.046928+00:00", "meta": {"OBJECT_NAME": "FENGYUN 1C DEB", "OBJECT_ID": "1999-025BLK", "EPOCH": "2025-12-06T15:04:29.328672", "MEAN_MOTION": 14.21763538, "ECCENTRICITY": 0.00525908, "INCLINATION": 98.8678, "RA_OF_ASC_NODE": 55.9076, "ARG_OF_PERICENTER": 314.7089, "MEAN_ANOMALY": 44.9811, "EPHEMERIS_TYPE": 0, "CLASSIFICATION_TYPE": "U", "NORAD_CAT_ID": 31229, "ELEMENT_SET_NO": 999, "REV_AT_EPOCH": 95997, "BSTAR": 0.0024116391, "MEAN_MOTION_DOT": 5.337e-05, "MEAN_MOTION_DDOT": 0}, "tle": {"line1": "1 31229U 99025BLK 25340.62811723  .00005337  00000+0  24116-2 0  9999", "line2": "2 31229  98.8678  55.9076 0052590 314.7089  44.9811 14.21763538959976"}}, "geometry": {"type": "Point", "coordinates": [78.40388456130192, -66.21116632940713]}}, {"type": "Feature", "properties": {"norad_id": 31231, "name": "FENGYUN 1C DEB", "group": "fengyun-1c-debris", "lat": -6.881411956623835, "lon": -39.98005860149119, "alt_km": 605.9237307271414, "timestamp": "2025-12-08T08:59:01.046938+00:00", "meta": {"OBJECT_NAME": "FENGYUN 1C DEB", "OBJECT_ID": "1999-025BLM", "EPOCH": "2025-12-07T04:28:47.589888", "MEAN_MOTION": 14.75193183, "ECCENTRICITY": 0.01468739, "INCLINATION": 98.8605, "RA_OF_ASC_NODE": 139.7987, "ARG_OF_PERICENTER": 123.9175, "MEAN_ANOMALY": 237.6099, "EPHEMERIS_TYPE": 0, "CLASSIFICATION_TYPE": "U", "NORAD_CAT_ID": 31231, "ELEMENT_SET_NO": 999, "REV_AT_EPOCH": 62939, "BSTAR": 0.0055087948, "MEAN_MOTION_DOT": 0.00044548, "MEAN_MOTION_DDOT": 0}, "tle": {"line1": "1 31231U 99025BLM 25341.18666192  .00044548  00000+0  55088-2 0  9991", "line2": "2 31231  98.8605 139.7987 0146873 123.9175 237.6099 14.75193183629396"}}, "geometry": {"type": "Point", "coordinates": [-39.98005860149119, -6.881411956623835]}}, {"type": "Feature", "properties": {"norad_id": 31234, "name": "FENGYUN 1C DEB", "group": "fengyun-1c-debris", "lat": 65.04297560719242, "lon": 175.89833545226145, "alt_km": 890.5573254792098, "timestamp": "2025-12-08T08:59:01.046948+00:00", "meta": {"OBJECT_NAME": "FENGYUN 1C DEB", "OBJECT_ID": "1999-025BLQ", "EPOCH": "2025-12-07T17:05:27.152448", "MEAN_MOTION": 14.08008938, "ECCENTRICITY": 0.00729268, "INCLINATION": 98.7833, "RA_OF_ASC_NODE": 335.8513, "ARG_OF_PERICENTER": 241.2014, "MEAN_ANOMALY": 118.1819, "EPHEMERIS_TYPE": 0, "CLASSIFICATION_TYPE": "U", "NORAD_CAT_ID": 31234, "ELEMENT_SET_NO": 999, "REV_AT_EPOCH": 72649, "BSTAR": 0.00052755603, "MEAN_MOTION_DOT": 8.76e-06, "MEAN_MOTION_DDOT": 0}, "tle": {"line1": "1 31234U 99025BLQ 25341.71211982  .00000876  00000+0  52756-3 0  9992", "line2": "2 31234  98.7833 335.8513 0072926 241.2014 118.1819 14.08008938726499"}}, "geometry": {"type": "Point", "coordinates": [175.89833545226145, 65.04297560719242]}}, {"type": "Feature", "properties": {"norad_id": 31235, "name": "FENGYUN 1C DEB", "group": "fengyun-1c-debris", "lat": -68.54366247389402, "lon": 153.12181190162408, "alt_km": 869.9099029710087, "timestamp": "2025-12-08T08:59:01.046973+00:00", "meta": {"OBJECT_NAME": "FENGYUN 1C DEB", "OBJECT_ID": "1999-025BLR", "EPOCH": "2025-12-02T16:11:02.663232", "MEAN_MOTION": 14.18412346, "ECCENTRICITY": 0.01800212, "INCLINATION": 98.4719, "RA_OF_ASC_NODE": 125.3899, "ARG_OF_PERICENTER": 51.7016, "MEAN_ANOMALY": 310.0196, "EPHEMERIS_TYPE": 0, "CLASSIFICATION_TYPE": "U", "NORAD_CAT_ID": 31235, "ELEMENT_SET_NO": 999, "REV_AT_EPOCH": 63024, "BSTAR": 0.0030847823, "MEAN_MOTION_DOT": 7.441e-05, "MEAN_MOTION_DDOT": 0}, "tle": {"line1": "1 31235U 99025BLR 25336.67433638  .00007441  00000+0  30848-2 0  9998", "line2": "2 31235  98.4719 125.3899 0180021  51.7016 310.0196 14.18412346630242"}}, "geometry": {"type": "Point", "coordinates": [153.12181190162408, -68.54366247389402]}}, {"type": "Feature", "properties": {"norad_id": 31236, "name": "FENGYUN 1C DEB", "group": "fengyun-1c-debris", "lat": -44.03844751148978, "lon": -53.66805907711986, "alt_km": 995.826930790784, "timestamp": "2025-12-08T08:59:01.046986+00:00", "meta": {"OBJECT_NAME": "FENGYUN 1C DEB", "OBJECT_ID": "1999-025BLS", "EPOCH": "2025-12-07T14:08:05.413920", "MEAN_MOTION": 13.85712851, "ECCENTRICITY": 0.03144528, "INCLINATION": 98.5452, "RA_OF_ASC_NODE": 297.2545, "ARG_OF_PERICENTER": 60.7521, "MEAN_ANOMALY": 302.469, "EPHEMERIS_TYPE": 0, "CLASSIFICATION_TYPE": "U", "NORAD_CAT_ID": 31236, "ELEMENT_SET_NO": 999, "REV_AT_EPOCH": 60953, "BSTAR": 0.0078359311, "MEAN_MOTION_DOT": 0.00013196, "MEAN_MOTION_DDOT": 0}, "tle": {"line1": "1 31236U 99025BLS 25341.58895155  .00013196  00000+0  78359-2 0  9994", "line2": "2 31236  98.5452 297.2545 0314452  60.7521 302.4690 13.85712851609532"}}, "geometry": {"type": "Point", "coordinates": [-53.66805907711986, -44.03844751148978]}}, {"type": "Feature", "properties": {"norad_id": 31237, "name": "FENGYUN 1C DEB", "group": "fengyun-1c-debris", "lat": -69.19119459782198, "lon": 138.31718695496576, "alt_km": 816.8660398282136, "timestamp": "2025-12-08T08:59:01.046997+00:00", "meta": {"OBJECT_NAME": "FENGYUN 1C DEB", "OBJECT_ID": "1999-025BLT", "EPOCH": "2025-12-07T06:38:44.626560", "MEAN_MOTION": 14.31361476, "ECCENTRICITY": 0.00892929, "INCLINATION": 98.4531, "RA_OF_ASC_NODE": 340.2845, "ARG_OF_PERICENTER": 5.1361, "MEAN_ANOMALY": 355.0718, "EPHEMERIS_TYPE": 0, "CLASSIFICATION_TYPE": "U", "NORAD_CAT_ID": 31237, "ELEMENT_SET_NO": 999, "REV_AT_EPOCH": 97188, "BSTAR": 0.0010580644, "MEAN_MOTION_DOT": 2.887e-05, "MEAN_MOTION_DDOT": 0}, "tle": {"line1": "1 31237U 99025BLT 25341.27690540  .00002887  00000+0  10581-2 0  9990", "line2": "2 31237  98.4531 340.2845 0089292   5.1361 355.0718 14.31361476971888"}}, "geometry": {"type": "Point", "coordinates": [138.31718695496576, -69.19119459782198]}}, {"type": "Feature", "properties": {"norad_id": 31239, "name": "FENGYUN 1C DEB", "group": "fengyun-1c-debris", "lat": 61.200187995803276, "lon": -38.85256770988294, "alt_km": 883.9553028740038, "timestamp": "2025-12-08T08:59:01.047007+00:00", "meta": {"OBJECT_NAME": "FENGYUN 1C DEB", "OBJECT_ID": "1999-025BLV", "EPOCH": "2025-12-07T22:36:19.688256", "MEAN_MOTION": 14.09851379, "ECCENTRICITY": 0.00490107, "INCLINATION": 98.7585, "RA_OF_ASC_NODE": 337.0122, "ARG_OF_PERICENTER": 211.8108, "MEAN_ANOMALY": 177.4668, "EPHEMERIS_TYPE": 0, "CLASSIFICATION_TYPE": "U", "NORAD_CAT_ID": 31239, "ELEMENT_SET_NO": 999, "REV_AT_EPOCH": 95944, "BSTAR": 0.000553601, "MEAN_MOTION_DOT": 9.42e-06, "MEAN_MOTION_DDOT": 0}, "tle": {"line1": "1 31239U 99025BLV 25341.94189454  .00000942  00000+0  55360-3 0  9998", "line2": "2 31239  98.7585 337.0122 0049010 211.8108 177.4668 14.09851379959442"}}, "geometry": {"type": "Point", "coordinates": [-38.85256770988294, 61.200187995803276]}}, {"type": "Feature", "properties": {"norad_id": 31241, "name": "FENGYUN 1C DEB", "group": "fengyun-1c-debris", "lat": -16.544342188443, "lon": 131.63326909934347, "alt_km": 808.613735388958, "timestamp": "2025-12-08T08:59:01.047017+00:00", "meta": {"OBJECT_NAME": "FENGYUN 1C DEB", "OBJECT_ID": "1999-025BLX", "EPOCH": "2025-12-06T08:39:23.222016", "MEAN_MOTION": 14.38655146, "ECCENTRICITY": 0.00666485, "INCLINATION": 99.2342, "RA_OF_ASC_NODE": 126.6984, "ARG_OF_PERICENTER": 199.7425, "MEAN_ANOMALY": 160.1179, "EPHEMERIS_TYPE": 0, "CLASSIFICATION_TYPE": "U", "NORAD_CAT_ID": 31241, "ELEMENT_SET_NO": 999, "REV_AT_EPOCH": 97599, "BSTAR": 0.0013711072, "MEAN_MOTION_DOT": 4.264e-05, "MEAN_MOTION_DDOT": 0}, "tle": {"line1": "1 31241U 99025BLX 25340.36068544  .00004264  00000+0  13711-2 0  9996", "line2": "2 31241  99.2342 126.6984 0066648 199.7425 160.1179 14.38655146975992"}}, "geometry": {"type": "Point", "coordinates": [131.63326909934347, -16.544342188443]}}, {"type": "Feature", "properties": {"norad_id": 31243, "name": "FENGYUN 1C DEB", "group": "fengyun-1c-debris", "lat": 40.69935010334249, "lon": 15.162951065291649, "alt_km": 901.7814007500001, "timestamp": "2025-12-08T08:59:01.047027+00:00", "meta": {"OBJECT_NAME": "FENGYUN 1C DEB", "OBJECT_ID": "1999-025BLZ", "EPOCH": "2025-12-06T09:00:09.592128", "MEAN_MOTION": 14.07144739, "ECCENTRICITY": 0.00659482, "INCLINATION": 98.7507, "RA_OF_ASC_NODE": 20.8406, "ARG_OF_PERICENTER": 185.967, "MEAN_ANOMALY": 174.072, "EPHEMERIS_TYPE": 0, "CLASSIFICATION_TYPE": "U", "NORAD_CAT_ID": 31243, "ELEMENT_SET_NO": 999, "REV_AT_EPOCH": 69218, "BSTAR": 0.0012936384, "MEAN_MOTION_DOT": 2.167e-05, "MEAN_MOTION_DDOT": 0}, "tle": {"line1": "1 31243U 99025BLZ 25340.37511102  .00002167  00000+0  12936-2 0  9990", "line2": "2 31243  98.7507  20.8406 0065948 185.9670 174.0720 14.07144739692186"}}, "geometry": {"type": "Point", "coordinates": [15.162951065291649, 40.69935010334249]}}]}